{"type": "FeatureCollection", "features": [ {"type": "Feature", "properties": {"norad_id": 31516, "name": "FENGYUN 1C DEB", "group": "fengyun-1c-debris", "lat": -21.487051183399334, "lon": 96.15044847638333, "alt_km": 776.1732051850868, "timestamp": "2025-12-02T19:35:50.838803+00:00", "meta": {"OBJECT_NAME": "FENGYUN 1C DEB", "OBJECT_ID": "1999-025BXF", "EPOCH": "2025-12-01T06:46:22.370304", "MEAN_MOTION": 14.25365436, "ECCENTRICITY": 0.0148139, "INCLINATION": 98.832, "RA_OF_ASC_NODE": 91.0964, "ARG_OF_PERICENTER": 271.949, "MEAN_ANOMALY": 115.971, "EPHEMERIS_TYPE": 0, "CLASSIFICATION_TYPE": "U", "NORAD_CAT_ID": 31516, "ELEMENT_SET_NO": 999, "REV_AT_EPOCH": 96329, "BSTAR": 0.00049633, "MEAN_MOTION_DOT": 1.264e-05, "MEAN_MOTION_DDOT": 0}, "tle": {"line1": "1 31516U 99025BXF 25335.28220336  .00001264  00000+0  49633-3 0  9995", "line2": "2 31516  98.8320  91.0964 0148139 271.9490 115.9710 14.25365436963297"}}, "geometry": {"type": "Point", "coordinates": [96.15044847638333, -21.487051183399334]}}, {"type": "Feature", "properties": {"norad_id": 31519, "name": "FENGYUN 1C DEB", "group": "fengyun-1c-debris", "lat": 12.263967257182227, "lon": 155.5026625599836, "alt_km": 824.4510504389691, "timestamp": "2025-12-02T19:35:50.838813+00:00", "meta": {"OBJECT_NAME": "FENGYUN 1C DEB", "OBJECT_ID": "1999-025BXJ", "EPOCH": "2025-12-02T05:18:38.960928", "MEAN_MOTION": 14.23363236, "ECCENTRICITY": 0.0051768, "INCLINATION": 98.5732, "RA_OF_ASC_NODE": 333.0436, "ARG_OF_PERICENTER": 273.8971, "MEAN_ANOMALY": 85.629, "EPHEMERIS_TYPE": 0, "CLASSIFICATION_TYPE": "U", "NORAD_CAT_ID": 31519, "ELEMENT_SET_NO": 999, "REV_AT_EPOCH": 64615, "BSTAR": 0.00061131, "MEAN_MOTION_DOT": 1.362e-05, "MEAN_MOTION_DDOT": 0}, "tle": {"line1": "1 31519U 99025BXJ 25336.22128427  .00001362  00000+0  61131-3 0  9997", "line2": "2 31519  98.5732 333.0436 0051768 273.8971  85.6290 14.23363236646156"}}, "geometry": {"type": "Point", "coordinates": [155.5026625599836, 12.263967257182227]}}, {"type": "Feature", "properties": {"norad_id": 31522, "name": "FENGYUN 1C DEB", "group": "fengyun-1c-debris", "lat": -34.861106290860796, "lon": 169.3107436039645, "alt_km": 855.8814353566304, "timestamp": "2025-12-02T19:35:50.838824+00:00", "meta": {"OBJECT_NAME": "FENGYUN 1C DEB", "OBJECT_ID": "1999-025BXM", "EPOCH": "2025-12-02T11:43:53.698080", "MEAN_MOTION": 14.03969195, "ECCENTRICITY": 0.0042981, "INCLINATION": 98.7082, "RA_OF_ASC_NODE": 355.1255, "ARG_OF_PERICENTER": 229.3974, "MEAN_ANOMALY": 130.3451, "EPHEMERIS_TYPE": 0, "CLASSIFICATION_TYPE": "U", "NORAD_CAT_ID": 31522, "ELEMENT_SET_NO": 999, "REV_AT_EPOCH": 94852, "BSTAR": 0.00086355, "MEAN_MOTION_DOT": 1.334e-05, "MEAN_MOTION_DDOT": 0}, "tle": {"line1": "1 31522U 99025BXM 25336.48881595  .00001334  00000+0  86355-3 0  9995", "line2": "2 31522  98.7082 355.1255 0042981 229.3974 130.3451 14.03969195948527"}}, "geometry": {"type": "Point", "coordinates": [169.3107436039645, -34.861106290860796]}}, {"type": "Feature", "properties": {"norad_id": 31523, "name": "FENGYUN 1C DEB", "group": "fengyun-1c-debris", "lat": 65.83761095612363, "lon": 4.463807236950047, "alt_km": 830.0741964290901, "timestamp": "2025-12-02T19:35:50.838834+00:00", "meta": {"OBJECT_NAME": "FENGYUN 1C DEB", "OBJECT_ID": "1999-025BXN", "EPOCH": "2025-12-02T02:25:58.939968", "MEAN_MOTION": 14.13858271, "ECCENTRICITY": 0.00391019, "INCLINATION": 98.7592, "RA_OF_ASC_NODE": 23.8633, "ARG_OF_PERICENTER": 139.667, "MEAN_ANOMALY": 250.0174, "EPHEMERIS_TYPE": 0, "CLASSIFICATION_TYPE": "U", "NORAD_CAT_ID": 31523, "ELEMENT_SET_NO": 999, "REV_AT_EPOCH": 95857, "BSTAR": 3.1767003e-05, "MEAN_MOTION_DOT": 1.8e-07, "MEAN_MOTION_DDOT": 0}, "tle": {"line1": "1 31523U 99025BXN 25336.10137662  .00000018  00000+0  31767-4 0  9990", "line2": "2 31523  98.7592  23.8633 0039101 139.6670 250.0174 14.13858271958570"}}, "geometry": {"type": "Point", "coordinates": [4.463807236950047, 65.83761095612363]}}, {"type": "Feature", "properties": {"norad_id": 31527, "name": "FENGYUN 1C DEB", "group": "fengyun-1c-debris", "lat": 49.532244358280245, "lon": -25.615402009272582, "alt_km": 1493.9111780554313, "timestamp": "2025-12-02T19:35:50.838844+00:00", "meta": {"OBJECT_NAME": "FENGYUN 1C DEB", "OBJECT_ID": "1999-025BXS", "EPOCH": "2025-11-28T16:57:37.524384", "MEAN_MOTION": 13.23385857, "ECCENTRICITY": 0.04495652, "INCLINATION": 98.8931, "RA_OF_ASC_NODE": 140.2922, "ARG_OF_PERICENTER": 334.6734, "MEAN_ANOMALY": 23.2945, "EPHEMERIS_TYPE": 0, "CLASSIFICATION_TYPE": "U", "NORAD_CAT_ID": 31527, "ELEMENT_SET_NO": 999, "REV_AT_EPOCH": 90004, "BSTAR": 0.00062155533, "MEAN_MOTION_DOT": 4.13e-06, "MEAN_MOTION_DDOT": 0}, "tle": {"line1": "1 31527U 99025BXS 25332.70668431  .00000413  00000+0  62156-3 0  9993", "line2": "2 31527  98.8931 140.2922 0449565 334.6734  23.2945 13.23385857900044"}}, "geometry": {"type": "Point", "coordinates": [-25.615402009272582, 49.532244358280245]}}, {"type": "Feature", "properties": {"norad_id": 31531, "name": "FENGYUN 1C DEB", "group": "fengyun-1c-debris", "lat": -5.055747627869737, "lon": 22.606040813278494, "alt_km": 677.9408131160826, "timestamp": "2025-12-02T19:35:50.838854+00:00", "meta": {"OBJECT_NAME": "FENGYUN 1C DEB", "OBJECT_ID": "1999-025BXW", "EPOCH": "2025-11-29T09:39:09.228960", "MEAN_MOTION": 14.3550236, "ECCENTRICITY": 0.02446365, "INCLINATION": 98.3863, "RA_OF_ASC_NODE": 18.5353, "ARG_OF_PERICENTER": 308.4856, "MEAN_ANOMALY": 49.4611, "EPHEMERIS_TYPE": 0, "CLASSIFICATION_TYPE": "U", "NORAD_CAT_ID": 31531, "ELEMENT_SET_NO": 999, "REV_AT_EPOCH": 63743, "BSTAR": 0.00073280975, "MEAN_MOTION_DOT": 2.91e-05, "MEAN_MOTION_DDOT": 0}, "tle": {"line1": "1 31531U 99025BXW 25333.40219015  .00002910  00000+0  73281-3 0  9991", "line2": "2 31531  98.3863  18.5353 0244636 308.4856  49.4611 14.35502360637433"}}, "geometry": {"type": "Point", "coordinates": [22.606040813278494, -5.055747627869737]}}, {"type": "Feature", "properties": {"norad_id": 31533, "name": "FENGYUN 1C DEB", "group": "fengyun-1c-debris", "lat": 78.82296590385575, "lon": 175.72619319622893, "alt_km": 772.2454682488296, "timestamp": "2025-12-02T19:35:50.838864+00:00", "meta": {"OBJECT_NAME": "FENGYUN 1C DEB", "OBJECT_ID": "1999-025BXY", "EPOCH": "2025-12-02T10:48:09.376128", "MEAN_MOTION": 14.27593289, "ECCENTRICITY": 0.0066153, "INCLINATION": 98.9605, "RA_OF_ASC_NODE": 228.3398, "ARG_OF_PERICENTER": 19.1557, "MEAN_ANOMALY": 341.2088, "EPHEMERIS_TYPE": 0, "CLASSIFICATION_TYPE": "U", "NORAD_CAT_ID": 31533, "ELEMENT_SET_NO": 999, "REV_AT_EPOCH": 65976, "BSTAR": 0.00054807, "MEAN_MOTION_DOT": 1.334e-05, "MEAN_MOTION_DDOT": 0}, "tle": {"line1": "1 31533U 99025BXY 25336.45010852  .00001334  00000+0  54807-3 0  9991", "line2": "2 31533  98.9605 228.3398 0066153  19.1557 341.2088 14.27593289659767"}}, "geometry": {"type": "Point", "coordinates": [175.72619319622893, 78.82296590385575]}}, {"type": "Feature", "properties": {"norad_id": 31535, "name": "FENGYUN 1C DEB", "group": "fengyun-1c-debris", "lat": 34.502542248993855, "lon": -178.04820355034417, "alt_km": 853.1472766652678, "timestamp": "2025-12-02T19:35:50.838875+00:00", "meta": {"OBJECT_NAME": "FENGYUN 1C DEB", "OBJECT_ID": "1999-025BYA", "EPOCH": "2025-12-02T09:20:37.477824", "MEAN_MOTION": 14.28270054, "ECCENTRICITY": 0.008731, "INCLINATION": 98.0363, "RA_OF_ASC_NODE": 187.1309, "ARG_OF_PERICENTER": 193.9854, "MEAN_ANOMALY": 165.891, "EPHEMERIS_TYPE": 0, "CLASSIFICATION_TYPE": "U", "NORAD_CAT_ID": 31535, "ELEMENT_SET_NO": 999, "REV_AT_EPOCH": 71783, "BSTAR": 0.00091789, "MEAN_MOTION_DOT": 2.346e-05, "MEAN_MOTION_DDOT": 0}, "tle": {"line1": "1 31535U 99025BYA 25336.38932266  .00002346  00000+0  91789-3 0  9991", "line2": "2 31535  98.0363 187.1309 0087310 193.9854 165.8910 14.28270054717834"}}, "geometry": {"type": "Point", "coordinates": [-178.04820355034417, 34.502542248993855]}}, {"type": "Feature", "properties": {"norad_id": 31536, "name": "FENGYUN 1C DEB", "group": "fengyun-1c-debris", "lat": 35.196788019317374, "lon": -121.53202744884334, "alt_km": 866.5227848043833, "timestamp": "2025-12-02T19:35:50.838884+00:00", "meta": {"OBJECT_NAME": "FENGYUN 1C DEB", "OBJECT_ID": "1999-025BYB", "EPOCH": "2025-12-02T04:33:41.322240", "MEAN_MOTION": 14.54098664, "ECCENTRICITY": 0.0294452, "INCLINATION": 98.2355, "RA_OF_ASC_NODE": 243.7138, "ARG_OF_PERICENTER": 177.3497, "MEAN_ANOMALY": 182.9347, "EPHEMERIS_TYPE": 0, "CLASSIFICATION_TYPE": "U", "NORAD_CAT_ID": 31536, "ELEMENT_SET_NO": 999, "REV_AT_EPOCH": 96104, "BSTAR": 0.0011132, "MEAN_MOTION_DOT": 8.368e-05, "MEAN_MOTION_DDOT": 0}, "tle": {"line1": "1 31536U 99025BYB 25336.19006160  .00008368  00000+0  11132-2 0  9999", "line2": "2 31536  98.2355 243.7138 0294452 177.3497 182.9347 14.54098664961045"}}, "geometry": {"type": "Point", "coordinates": [-121.53202744884334, 35.196788019317374]}}, {"type": "Feature", "properties": {"norad_id": 31537, "name": "FENGYUN 1C DEB", "group": "fengyun-1c-debris", "lat": -0.7887470572434169, "lon": -50.68858269438483, "alt_km": 1077.1683426480486, "timestamp": "2025-12-02T19:35:50.838895+00:00", "meta": {"OBJECT_NAME": "FENGYUN 1C DEB", "OBJECT_ID": "1999-025BYC", "EPOCH": "2025-12-01T15:41:22.536384", "MEAN_MOTION": 14.20074958, "ECCENTRICITY": 0.0349482, "INCLINATION": 99.2927, "RA_OF_ASC_NODE": 128.2172, "ARG_OF_PERICENTER": 355.9583, "MEAN_ANOMALY": 3.8786, "EPHEMERIS_TYPE": 0, "CLASSIFICATION_TYPE": "U", "NORAD_CAT_ID": 31537, "ELEMENT_SET_NO": 999, "REV_AT_EPOCH": 93124, "BSTAR": 0.0016093722, "MEAN_MOTION_DOT": 6.299e-05, "MEAN_MOTION_DDOT": 0}, "tle": {"line1": "1 31537U 99025BYC 25335.65373306  .00006299  00000+0  16094-2 0  9992", "line2": "2 31537  99.2927 128.2172 0349482 355.9583   3.8786 14.20074958931241"}}, "geometry": {"type": "Point", "coordinates": [-50.68858269438483, -0.7887470572434169]}}]}